SENTINEL-6              
1 46984U 20086A   23241.91534600 -.00000031  00000+0  13042-3 0  9994
2 46984  66.0402  98.3230 0007858 268.4835  91.5280 12.80929357129395
